ECHOSTAR 23             
1 42070U 17014A   17101.56929792 -.00000292  00000-0  00000-0 0  9999
2 42070   0.0611 283.2392 0001599  99.8419 336.9184  1.00270442   314
FALCON 9 R/B            
1 42071U 17014B   17101.25278175  .00008625 -39990-6  40996-3 0  9993
2 42071  22.5145  84.8258 7305432 196.8205 111.5557  2.28553532   599
SES-10                  
1 42432U 17017A   17101.63468347 -.00000287  00000-0  00000-0 0  9990
2 42432   0.0728 294.7057 0002714 140.4411 284.8756  1.00273649   166
FALCON 9 R/B            
1 42433U 17017B   17099.90214756  .00007360  00000-0  14766-2 0  9994
2 42433  26.1810 352.1103 7147530 184.6489 160.5092  2.45808363   246
CHINASAT 16 (SJ-13)     
1 42662U 17018A   17102.71793814 -.00000233  00000-0  00000-0 0  9997
2 42662  20.9626   4.3728 7581174 179.4253 166.4550  1.91715626    00
CZ-3B R/B               
1 42663U 17018B   17102.63928840 -.00000334  00000-0  00000-0 0  9990
2 42663  20.9610   5.1066 7531782 178.3415 116.1457  1.98417084    08
